{
  "norad_id": 47630,
  "name": "STARLINK-1983",
  "history": [
    {
      "epoch": "2026-03-28T20:46:39.893664",
      "apogee_km": 476.03829709399815,
      "perigee_km": 474.28988291991664,
      "latitude_deg": 34.43996339206226,
      "longitude_deg": 106.11099295993336,
      "semi_major_axis_km": 6853.301090006958,
      "eccentricity": 0.00012756,
      "inclination_deg": 53.1588,
      "raan_deg": 320.485,
      "arg_perigee_deg": 94.1354,
      "mean_anomaly_deg": 265.9793,
      "mean_motion_rev_day": 15.30217074
    },
    {
      "epoch": "2026-03-29T01:28:49.165824",
      "apogee_km": 476.030671445551,
      "perigee_km": 474.2748586077523,
      "latitude_deg": -34.174307616681595,
      "longitude_deg": 124.92129535996355,
      "semi_major_axis_km": 6853.289765026651,
      "eccentricity": 0.0001281,
      "inclination_deg": 53.1588,
      "raan_deg": 319.5748,
      "arg_perigee_deg": 93.8885,
      "mean_anomaly_deg": 266.2263,
      "mean_motion_rev_day": 15.30220867
    }
  ]
}